QIANFAN-9               
1 60387U 24140J   26012.79140850  .00000139  00000+0  19567-3 0  9993
2 60387  88.9782 296.1288 0017816 104.6963 255.6164 13.50989967 71527
QIANFAN-10              
1 60388U 24140K   26012.79557162  .00000136  00000+0  19173-3 0  9992
2 60388  88.9792 295.4786 0016541  84.1071 276.1965 13.50990327 71653
QIANFAN-11              
1 60389U 24140L   26012.75868443  .00000085  00000+0  11260-3 0  9998
2 60389  88.9718 296.0464 0015871 104.1342 256.1574 13.50989767 71303
QIANFAN-12              
1 60390U 24140M   26012.85322491  .00000153  00000+0  21760-3 0  9991
2 60390  88.9761 296.0935 0014543 110.9156 249.3554 13.50987403 71441
QIANFAN-13              
1 60391U 24140N   26012.75034574  .00000131  00000+0  18326-3 0  9993
2 60391  88.9774 296.2079 0014298 113.5058 246.7597 13.50987778 71458
QIANFAN-14              
1 60392U 24140P   26012.84902940  .00000155  00000+0  22138-3 0  9997
2 60392  88.9752 296.0886 0017987 114.2400 246.0632 13.50987393 71474
QIANFAN-15              
1 60393U 24140Q   26012.78326512  .00000140  00000+0  19761-3 0  9998
2 60393  88.9776 296.0593 0014038 100.9771 259.2960 13.50985921 71456
QIANFAN-16              
1 60394U 24140R   26012.84499008  .00000152  00000+0  21593-3 0  9996
2 60394  88.9779 296.1740 0015856 117.3652 242.9115 13.50991327 71373
